{"type": "FeatureCollection", "features": [{"type": "Feature", "properties": {"gridcode": 1}, "geometry": {"type": "MultiPolygon", "coordinates": [[[[36.92507, -1.42617], [36.92534, -1.4267], [36.92507, -1.4267], [36.92507, -1.42617]]], [[[36.92291, -1.42428], [36.92507, -1.4259], [36.92372, -1.42563], [36.92291, -1.42428]]], [[[36.84907, -1.334], [36.85797, -1.34074], [36.87198, -1.34478], [36.87764, -1.34855], [36.89138, -1.34639], [36.89192, -1.35529], [36.89462, -1.3623], [36.8992, -1.36903], [36.90405, -1.37281], [36.90459, -1.37604], [36.89947, -1.37604], [36.8992, -1.372], [36.89408, -1.36634], [36.88707, -1.36795], [36.88626, -1.37038], [36.88788, -1.37334], [36.8868, -1.37442], [36.88438, -1.37496], [36.88141, -1.37361], [36.87926, -1.37038], [36.87953, -1.3631], [36.87683, -1.35906], [36.87656, -1.35583], [36.87198, -1.35475], [36.87144, -1.35044], [36.86848, -1.35017], [36.86605, -1.35259], [36.86282, -1.35205], [36.85527, -1.35744], [36.8515, -1.35691], [36.84988, -1.35044], [36.84557, -1.35421], [36.84234, -1.35502], [36.84018, -1.34855], [36.84207, -1.34316], [36.84099, -1.34074], [36.84126, -1.33562], [36.84368, -1.33346], [36.84907, -1.334]], [[36.84395, -1.3472], [36.84422, -1.34747], [36.84422, -1.3472], [36.84395, -1.3472]]], [[[36.92345, -1.34801], [36.91645, -1.35556], [36.91456, -1.35717], [36.91375, -1.35664], [36.91213, -1.34963], [36.91968, -1.34936], [36.91995, -1.34774], [36.92211, -1.34693], [36.92345, -1.34801]]], [[[36.89812, -1.34262], [36.89731, -1.34181], [36.89839, -1.34154], [36.89812, -1.34262]]], [[[36.71163, -1.29465], [36.71486, -1.29546], [36.71998, -1.30085], [36.72888, -1.29816], [36.73427, -1.29816], [36.73454, -1.30058], [36.73023, -1.30462], [36.7305, -1.30759], [36.734, -1.30894], [36.73993, -1.30894], [36.74478, -1.30651], [36.75664, -1.3084], [36.7631, -1.30408], [36.76553, -1.30408], [36.77011, -1.31082], [36.77173, -1.31621], [36.77146, -1.31945], [36.76849, -1.32403], [36.76876, -1.32618], [36.77712, -1.33777], [36.7817, -1.33723], [36.78574, -1.34047], [36.78844, -1.34074], [36.79005, -1.3375], [36.78951, -1.33319], [36.79167, -1.33184], [36.79356, -1.33184], [36.80029, -1.33723], [36.80919, -1.33535], [36.82374, -1.33588], [36.82509, -1.34154], [36.8232, -1.34451], [36.82024, -1.34613], [36.82024, -1.3499], [36.82428, -1.35178], [36.82563, -1.35448], [36.83344, -1.35771], [36.83263, -1.36607], [36.82724, -1.36607], [36.82778, -1.3693], [36.82563, -1.372], [36.82131, -1.37173], [36.81862, -1.36984], [36.81458, -1.37173], [36.80892, -1.37011], [36.80865, -1.36795], [36.81107, -1.36418], [36.81134, -1.35852], [36.81673, -1.35664], [36.82024, -1.35313], [36.81754, -1.34936], [36.81377, -1.34801], [36.81107, -1.35017], [36.81027, -1.35259], [36.80353, -1.35313], [36.79814, -1.35691], [36.79679, -1.36041], [36.78871, -1.36849], [36.78305, -1.36903], [36.77954, -1.37119], [36.772, -1.37065], [36.7693, -1.37442], [36.76256, -1.37658], [36.75798, -1.38143], [36.74586, -1.37981], [36.74532, -1.37523], [36.74343, -1.37523], [36.74154, -1.37954], [36.73292, -1.3782], [36.72726, -1.37388], [36.72376, -1.36876], [36.71864, -1.36715], [36.71379, -1.36041], [36.70813, -1.35798], [36.70328, -1.35232], [36.69384, -1.35367], [36.6898, -1.34963], [36.68953, -1.34639], [36.68684, -1.34343], [36.68657, -1.33939], [36.68495, -1.33696], [36.68603, -1.33346], [36.68899, -1.33535], [36.69061, -1.33346], [36.68845, -1.32618], [36.68387, -1.32376], [36.68657, -1.31594], [36.6898, -1.31406], [36.69115, -1.31082], [36.69411, -1.30974], [36.69465, -1.30516], [36.69708, -1.3022], [36.70328, -1.30489], [36.7057, -1.30435], [36.70894, -1.29654], [36.71163, -1.29465]], [[36.71891, -1.3154], [36.71298, -1.31971], [36.70543, -1.31998], [36.70408, -1.32106], [36.70624, -1.32753], [36.70947, -1.3313], [36.71513, -1.33238], [36.72079, -1.32915], [36.71972, -1.3243], [36.7216, -1.31783], [36.71891, -1.3154]], [[36.72753, -1.32484], [36.72457, -1.3278], [36.72537, -1.33076], [36.72726, -1.33238], [36.73481, -1.33238], [36.73939, -1.33023], [36.73858, -1.32807], [36.73346, -1.32484], [36.73157, -1.32403], [36.72753, -1.32484]], [[36.69357, -1.33535], [36.6898, -1.33642], [36.69034, -1.33858], [36.6933, -1.33939], [36.69438, -1.33615], [36.69357, -1.33535]], [[36.7561, -1.33535], [36.74693, -1.33831], [36.74208, -1.33642], [36.73373, -1.33804], [36.73211, -1.34101], [36.734, -1.34639], [36.72807, -1.34936], [36.72726, -1.35286], [36.72942, -1.35691], [36.73696, -1.36014], [36.74316, -1.36715], [36.74855, -1.3658], [36.75259, -1.36715], [36.75259, -1.37146], [36.75448, -1.37227], [36.76499, -1.36715], [36.76364, -1.35987], [36.75637, -1.35205], [36.75637, -1.34882], [36.76795, -1.34613], [36.76903, -1.34316], [36.76634, -1.33939], [36.76176, -1.33642], [36.7561, -1.33535]]], [[[36.69088, -1.33696], [36.69061, -1.33723], [36.69061, -1.33696], [36.69088, -1.33696]]], [[[36.69088, -1.33696], [36.69115, -1.33669], [36.69115, -1.33696], [36.69088, -1.33696]]], [[[36.79706, -1.30355], [36.79517, -1.30651], [36.79194, -1.30516], [36.7941, -1.30274], [36.79706, -1.30355]]], [[[36.92696, -1.29277], [36.92561, -1.29654], [36.92399, -1.29411], [36.92696, -1.29277]]], [[[36.8073, -1.27579], [36.80973, -1.27848], [36.80811, -1.28495], [36.8038, -1.28603], [36.80029, -1.28414], [36.79841, -1.28145], [36.79949, -1.2766], [36.8011, -1.27525], [36.8073, -1.27579]]], [[[36.72457, -1.26986], [36.72969, -1.27174], [36.72969, -1.27363], [36.72484, -1.27444], [36.72268, -1.27336], [36.72295, -1.27094], [36.72457, -1.26986]]], [[[36.86875, -1.2677], [36.86848, -1.26986], [36.86659, -1.27013], [36.86632, -1.26743], [36.86875, -1.2677]]], [[[36.90001, -1.22809], [36.91321, -1.2289], [36.91106, -1.23294], [36.90297, -1.23213], [36.8992, -1.23402], [36.89219, -1.23455], [36.89354, -1.23078], [36.90001, -1.22809]]], [[[36.86363, -1.19036], [36.86632, -1.19197], [36.86605, -1.19332], [36.87656, -1.19683], [36.87791, -1.19871], [36.88788, -1.19629], [36.89031, -1.1944], [36.89354, -1.19548], [36.89489, -1.19871], [36.89057, -1.2006], [36.88653, -1.19817], [36.87953, -1.19952], [36.86659, -1.20491], [36.86389, -1.20949], [36.86174, -1.21704], [36.855, -1.22377], [36.855, -1.23051], [36.85231, -1.23024], [36.8515, -1.23159], [36.84557, -1.23294], [36.84719, -1.24048], [36.85338, -1.24426], [36.8585, -1.24372], [36.85958, -1.2448], [36.85931, -1.24668], [36.85419, -1.24992], [36.84692, -1.25854], [36.8294, -1.26447], [36.83129, -1.25827], [36.83048, -1.25584], [36.82185, -1.25153], [36.81673, -1.25045], [36.80595, -1.25126], [36.7976, -1.24884], [36.78143, -1.24938], [36.77631, -1.24803], [36.77334, -1.25477], [36.76526, -1.26016], [36.76014, -1.25854], [36.75259, -1.25854], [36.7375, -1.2615], [36.72618, -1.26043], [36.72537, -1.24749], [36.72645, -1.24587], [36.72834, -1.24587], [36.72861, -1.24318], [36.73211, -1.24075], [36.73103, -1.23509], [36.74747, -1.23752], [36.75098, -1.23348], [36.75098, -1.23078], [36.75744, -1.21919], [36.77119, -1.22701], [36.77227, -1.22485], [36.77873, -1.22728], [36.78332, -1.22512], [36.78466, -1.21461], [36.78844, -1.21111], [36.79275, -1.21084], [36.7949, -1.20868], [36.79463, -1.20599], [36.78978, -1.2041], [36.78817, -1.20168], [36.7879, -1.19844], [36.79113, -1.19251], [36.79194, -1.19494], [36.79679, -1.19413], [36.82482, -1.20949], [36.82078, -1.21165], [36.81889, -1.21758], [36.82185, -1.22108], [36.82778, -1.22189], [36.83021, -1.21704], [36.82994, -1.21273], [36.83748, -1.21569], [36.84476, -1.21488], [36.84611, -1.21246], [36.84988, -1.2138], [36.85177, -1.20356], [36.86039, -1.20275], [36.86363, -1.19036]], [[36.8329, -1.22054], [36.82967, -1.22404], [36.83156, -1.22701], [36.83937, -1.23159], [36.84476, -1.22863], [36.84476, -1.22647], [36.84153, -1.22324], [36.83641, -1.22162], [36.83425, -1.21865], [36.83263, -1.21892], [36.8329, -1.22054]], [[36.80622, -1.22943], [36.80461, -1.23105], [36.80595, -1.2359], [36.81053, -1.23887], [36.8135, -1.23914], [36.81646, -1.23375], [36.81566, -1.22943], [36.81, -1.22863], [36.80622, -1.22943]]], [[[36.92399, -1.17877], [36.9283, -1.18443], [36.92803, -1.18739], [36.92615, -1.18928], [36.91537, -1.18416], [36.91779, -1.18039], [36.92157, -1.17823], [36.92399, -1.17877]]], [[[36.89758, -1.16098], [36.91699, -1.16179], [36.91806, -1.16395], [36.90782, -1.17095], [36.90162, -1.1785], [36.89543, -1.17931], [36.89165, -1.17823], [36.88788, -1.17284], [36.89273, -1.17041], [36.89758, -1.16098]]], [[[36.95579, -1.44045], [36.95741, -1.4426], [36.95687, -1.44287], [36.95579, -1.44045]]], [[[36.92642, -1.42994], [36.92669, -1.43021], [36.92642, -1.43021], [36.92642, -1.42994]]], [[[36.92938, -1.40811], [36.93262, -1.41188], [36.93666, -1.40892], [36.94124, -1.41458], [36.94178, -1.41997], [36.93639, -1.42455], [36.93342, -1.42428], [36.92507, -1.41458], [36.9248, -1.40892], [36.92669, -1.40757], [36.92938, -1.40811]]], [[[36.93504, -1.33804], [36.93208, -1.34181], [36.93046, -1.34127], [36.93019, -1.33993], [36.93208, -1.33831], [36.93504, -1.33804]]], [[[36.9504, -1.31028], [36.95418, -1.31433], [36.95471, -1.3181], [36.95633, -1.31998], [36.96172, -1.31837], [36.96576, -1.31945], [36.96307, -1.32025], [36.94959, -1.33076], [36.94717, -1.32834], [36.95067, -1.3278], [36.95094, -1.32564], [36.94744, -1.32187], [36.94528, -1.32187], [36.9442, -1.32888], [36.94447, -1.32996], [36.94663, -1.32888], [36.94771, -1.33157], [36.94313, -1.33319], [36.93666, -1.33804], [36.93962, -1.33023], [36.93423, -1.32564], [36.9345, -1.32214], [36.93666, -1.32025], [36.93854, -1.3154], [36.9434, -1.31459], [36.94825, -1.30974], [36.9504, -1.31028]], [[36.95256, -1.31918], [36.9531, -1.31971], [36.9531, -1.31918], [36.95256, -1.31918]]], [[[36.94609, -1.32268], [36.94555, -1.32295], [36.94555, -1.32241], [36.94609, -1.32268]]], [[[36.97843, -1.3084], [36.98355, -1.31325], [36.98436, -1.31621], [36.97547, -1.31756], [36.97547, -1.30947], [36.97627, -1.30786], [36.97843, -1.3084]]], [[[36.93881, -1.30085], [36.94178, -1.30139], [36.94097, -1.30624], [36.94447, -1.30624], [36.94474, -1.30759], [36.94259, -1.3092], [36.9407, -1.3092], [36.93989, -1.30705], [36.931, -1.3084], [36.93289, -1.30247], [36.93881, -1.30085]]], [[[37.07141, -1.3022], [37.07168, -1.30247], [37.07141, -1.30247], [37.07141, -1.3022]]], [[[36.93289, -1.26986], [36.93612, -1.27929], [36.93612, -1.28495], [36.93235, -1.29007], [36.92399, -1.29223], [36.92157, -1.28953], [36.92318, -1.27579], [36.92884, -1.26986], [36.93289, -1.26986]]], [[[36.94124, -1.22377], [36.94636, -1.22701], [36.95418, -1.22728], [36.95714, -1.22997], [36.95983, -1.22916], [36.96064, -1.23024], [36.97196, -1.23213], [36.97816, -1.23105], [36.98032, -1.23914], [36.98382, -1.24372], [36.98382, -1.2483], [36.97978, -1.25611], [36.9752, -1.25827], [36.96981, -1.25099], [36.96361, -1.24911], [36.96199, -1.24372], [36.96981, -1.24533], [36.97196, -1.24695], [36.97223, -1.2456], [36.969, -1.24318], [36.96037, -1.24237], [36.95418, -1.23994], [36.94232, -1.24102], [36.94151, -1.23914], [36.9434, -1.23105], [36.9407, -1.22458], [36.94124, -1.22377]]], [[[37.08272, -1.23725], [37.08326, -1.23752], [37.08272, -1.23752], [37.08272, -1.23725]]], [[[37.08353, -1.23698], [37.0838, -1.23725], [37.08353, -1.23725], [37.08353, -1.23698]]], [[[37.06278, -1.20599], [37.08057, -1.23671], [37.07545, -1.23779], [37.07194, -1.24345], [37.06898, -1.2456], [37.06009, -1.24641], [37.05847, -1.25019], [37.05308, -1.24992], [37.04553, -1.25719], [37.04338, -1.25638], [37.03961, -1.25827], [37.03179, -1.25908], [37.02128, -1.25611], [37.01346, -1.25638], [37.00673, -1.25288], [37.00295, -1.24641], [36.99972, -1.24533], [36.99514, -1.24668], [36.99406, -1.24533], [36.99622, -1.23294], [37.00161, -1.23402], [37.00215, -1.23617], [37.00511, -1.23725], [37.00861, -1.23617], [37.01185, -1.23698], [37.014, -1.23536], [37.01373, -1.23132], [37.01535, -1.22943], [37.01751, -1.22943], [37.01805, -1.22701], [37.02209, -1.22674], [37.0229, -1.22782], [37.02559, -1.22701], [37.02963, -1.22243], [37.03233, -1.22135], [37.03395, -1.21758], [37.04203, -1.2165], [37.04931, -1.20868], [37.05524, -1.20707], [37.0582, -1.20949], [37.06278, -1.20599]], [[37.01885, -1.24749], [37.01805, -1.24695], [37.01778, -1.24749], [37.01885, -1.24749]]], [[[36.94043, -1.17419], [36.94313, -1.1758], [36.9407, -1.1785], [36.94043, -1.17419]]], [[[36.94016, -1.17419], [36.94043, -1.17365], [36.94043, -1.17419], [36.94016, -1.17419]]]]}}, {"type": "Feature", "properties": {"gridcode": 2}, "geometry": {"type": "MultiPolygon", "coordinates": [[[[36.73669, -1.379], [36.73696, -1.37927], [36.73669, -1.37927], [36.73669, -1.379]]], [[[36.73319, -1.3782], [36.73346, -1.37846], [36.73319, -1.37846], [36.73319, -1.3782]]], [[[36.72753, -1.37415], [36.7278, -1.37442], [36.72753, -1.37442], [36.72753, -1.37415]]], [[[36.72052, -1.36769], [36.72564, -1.37065], [36.72753, -1.37415], [36.72052, -1.36769]]], [[[36.71998, -1.36769], [36.72052, -1.36742], [36.72052, -1.36769], [36.71998, -1.36769]]], [[[36.75502, -1.33535], [36.76176, -1.33642], [36.76634, -1.33939], [36.76903, -1.34478], [36.76607, -1.34666], [36.75664, -1.34828], [36.75637, -1.35205], [36.76041, -1.35744], [36.76337, -1.35933], [36.76499, -1.36715], [36.75367, -1.37227], [36.75232, -1.37065], [36.75259, -1.36715], [36.74963, -1.3658], [36.74316, -1.36715], [36.73696, -1.36014], [36.72861, -1.3561], [36.72726, -1.35125], [36.72807, -1.34936], [36.734, -1.34639], [36.73211, -1.34101], [36.73373, -1.33804], [36.74208, -1.33642], [36.74693, -1.33831], [36.75502, -1.33535]], [[36.7472, -1.3437], [36.74316, -1.34586], [36.74343, -1.35232], [36.74478, -1.35421], [36.74801, -1.35421], [36.75044, -1.35125], [36.7499, -1.3472], [36.7472, -1.3437]], [[36.75933, -1.36041], [36.75502, -1.36283], [36.75502, -1.36418], [36.75825, -1.36607], [36.76041, -1.36553], [36.76014, -1.36122], [36.75933, -1.36041]]], [[[36.69411, -1.33615], [36.6933, -1.33939], [36.69034, -1.33858], [36.69034, -1.33588], [36.69411, -1.33615]], [[36.69115, -1.33696], [36.69088, -1.33669], [36.69088, -1.33696], [36.69115, -1.33696]], [[36.69088, -1.33696], [36.69061, -1.33723], [36.69088, -1.33723], [36.69088, -1.33696]]], [[[36.72888, -1.32403], [36.73858, -1.32807], [36.73939, -1.33023], [36.73481, -1.33238], [36.72672, -1.33211], [36.72457, -1.32915], [36.72564, -1.32564], [36.72888, -1.32403]]], [[[36.71998, -1.31594], [36.7216, -1.31783], [36.71972, -1.3243], [36.72052, -1.32969], [36.71513, -1.33238], [36.70947, -1.3313], [36.70624, -1.32753], [36.70408, -1.32106], [36.70543, -1.31998], [36.71136, -1.32025], [36.71567, -1.31648], [36.71998, -1.31594]]], [[[36.72996, -1.23429], [36.73211, -1.24075], [36.72861, -1.24318], [36.72996, -1.23429]]], [[[36.75098, -1.23348], [36.74855, -1.23536], [36.75098, -1.23105], [36.75098, -1.23348]]], [[[36.77658, -1.22593], [36.77685, -1.2262], [36.77658, -1.2262], [36.77658, -1.22593]]], [[[36.77658, -1.22566], [36.77604, -1.22593], [36.77604, -1.22566], [36.77658, -1.22566]]], [[[36.7755, -1.22566], [36.77604, -1.22539], [36.77604, -1.22566], [36.7755, -1.22566]]], [[[36.77496, -1.22512], [36.7755, -1.22539], [36.77496, -1.22539], [36.77496, -1.22512]]], [[[36.77334, -1.22404], [36.77496, -1.22512], [36.77254, -1.22431], [36.77334, -1.22404]]], [[[36.71136, -1.28899], [36.71729, -1.2925], [36.72133, -1.29762], [36.73023, -1.29627], [36.73588, -1.29681], [36.73696, -1.30058], [36.73373, -1.30462], [36.73588, -1.30705], [36.74047, -1.30678], [36.74451, -1.30489], [36.75502, -1.3057], [36.76256, -1.30085], [36.76661, -1.30112], [36.76903, -1.30408], [36.7693, -1.30732], [36.77227, -1.31136], [36.77361, -1.31675], [36.77092, -1.32618], [36.77496, -1.33157], [36.78224, -1.33454], [36.78466, -1.33454], [36.79167, -1.32996], [36.79679, -1.33023], [36.80353, -1.33346], [36.80649, -1.33023], [36.81027, -1.33211], [36.81539, -1.33238], [36.817, -1.32969], [36.81943, -1.32969], [36.82886, -1.33427], [36.84746, -1.33076], [36.86821, -1.34154], [36.8736, -1.34235], [36.87737, -1.34478], [36.88518, -1.34559], [36.89947, -1.33804], [36.90082, -1.3313], [36.90998, -1.32376], [36.91321, -1.32295], [36.91186, -1.32996], [36.90755, -1.33562], [36.90755, -1.34397], [36.89462, -1.34774], [36.89435, -1.35259], [36.89596, -1.35825], [36.90109, -1.3658], [36.90594, -1.36769], [36.91213, -1.3755], [36.91591, -1.37739], [36.91725, -1.3817], [36.91591, -1.38978], [36.9186, -1.3914], [36.9213, -1.39113], [36.92238, -1.39463], [36.92857, -1.39706], [36.93127, -1.40002], [36.93747, -1.40218], [36.94205, -1.40622], [36.94528, -1.42239], [36.94932, -1.42886], [36.95391, -1.42994], [36.95822, -1.43883], [36.96064, -1.43991], [36.95876, -1.44395], [36.95714, -1.44314], [36.95741, -1.44153], [36.95445, -1.43721], [36.94798, -1.43695], [36.9442, -1.4329], [36.93881, -1.43263], [36.93154, -1.43425], [36.90621, -1.42347], [36.90378, -1.41781], [36.90621, -1.41296], [36.91186, -1.40919], [36.9124, -1.40488], [36.91483, -1.40191], [36.91429, -1.3914], [36.91321, -1.38951], [36.90243, -1.38655], [36.89165, -1.38736], [36.88518, -1.38251], [36.87467, -1.38412], [36.86982, -1.3817], [36.86497, -1.38116], [36.86336, -1.37981], [36.86147, -1.37227], [36.85824, -1.36822], [36.85312, -1.36876], [36.85096, -1.37119], [36.84557, -1.37254], [36.84341, -1.37442], [36.83991, -1.38143], [36.8356, -1.38305], [36.8356, -1.38493], [36.8329, -1.38682], [36.82078, -1.3852], [36.81889, -1.38143], [36.81646, -1.38062], [36.80488, -1.38898], [36.80353, -1.38709], [36.80002, -1.38924], [36.79895, -1.38736], [36.7941, -1.3852], [36.7817, -1.38871], [36.7782, -1.38628], [36.77334, -1.38628], [36.77011, -1.38305], [36.76661, -1.38197], [36.75448, -1.38412], [36.74613, -1.38305], [36.74505, -1.38143], [36.74208, -1.38224], [36.73966, -1.37981], [36.73777, -1.38035], [36.73723, -1.379], [36.74208, -1.37927], [36.74343, -1.37523], [36.74532, -1.37523], [36.74586, -1.37981], [36.75717, -1.3817], [36.76256, -1.37658], [36.7693, -1.37442], [36.772, -1.37065], [36.77954, -1.37119], [36.78305, -1.36903], [36.78871, -1.36849], [36.79679, -1.36041], [36.79814, -1.35691], [36.80353, -1.35313], [36.81027, -1.35259], [36.81107, -1.35017], [36.81377, -1.34801], [36.81754, -1.34936], [36.82024, -1.35313], [36.81673, -1.35664], [36.81134, -1.35852], [36.81107, -1.36418], [36.80865, -1.36795], [36.81, -1.37092], [36.81458, -1.37173], [36.81862, -1.36984], [36.82131, -1.37173], [36.8267, -1.37146], [36.82778, -1.3693], [36.82724, -1.36607], [36.83263, -1.36607], [36.83371, -1.35825], [36.82967, -1.35529], [36.82563, -1.35448], [36.82428, -1.35178], [36.82024, -1.3499], [36.82024, -1.34613], [36.8232, -1.34451], [36.82509, -1.34154], [36.82482, -1.33777], [36.8232, -1.33562], [36.80919, -1.33535], [36.80029, -1.33723], [36.79356, -1.33184], [36.79167, -1.33184], [36.78951, -1.33319], [36.79005, -1.3375], [36.78844, -1.34074], [36.78574, -1.34047], [36.7817, -1.33723], [36.77793, -1.33804], [36.77577, -1.33696], [36.76876, -1.32618], [36.76849, -1.32403], [36.77146, -1.31945], [36.77173, -1.31621], [36.77011, -1.31082], [36.76553, -1.30408], [36.7631, -1.30408], [36.75664, -1.3084], [36.74478, -1.30651], [36.73993, -1.30894], [36.734, -1.30894], [36.7305, -1.30759], [36.73023, -1.30462], [36.73454, -1.30058], [36.73427, -1.29816], [36.72888, -1.29816], [36.71998, -1.30085], [36.71486, -1.29546], [36.71163, -1.29465], [36.70894, -1.29654], [36.7057, -1.30435], [36.70328, -1.30489], [36.69708, -1.3022], [36.69465, -1.30516], [36.69411, -1.30974], [36.69115, -1.31082], [36.6898, -1.31406], [36.68657, -1.31594], [36.68387, -1.32376], [36.68845, -1.32618], [36.69061, -1.33346], [36.6898, -1.33535], [36.68603, -1.33346], [36.68495, -1.33669], [36.68306, -1.3375], [36.68145, -1.33076], [36.67309, -1.32861], [36.67282, -1.32295], [36.67471, -1.31945], [36.67471, -1.31837], [36.67363, -1.31864], [36.67471, -1.31433], [36.67228, -1.31459], [36.67148, -1.31217], [36.67902, -1.30543], [36.68468, -1.30301], [36.68711, -1.30031], [36.69196, -1.29923], [36.69573, -1.296], [36.70085, -1.296], [36.70597, -1.29169], [36.70732, -1.28845], [36.71136, -1.28899]], [[36.84234, -1.33427], [36.84099, -1.33912], [36.84207, -1.34316], [36.84018, -1.34747], [36.84234, -1.35502], [36.84557, -1.35421], [36.84988, -1.35044], [36.8515, -1.35691], [36.85527, -1.35744], [36.86282, -1.35205], [36.86605, -1.35259], [36.86848, -1.35017], [36.87144, -1.35044], [36.87198, -1.35475], [36.87656, -1.35583], [36.87683, -1.35906], [36.87953, -1.3631], [36.87926, -1.37038], [36.88141, -1.37361], [36.88438, -1.37496], [36.8868, -1.37442], [36.88788, -1.37334], [36.88626, -1.37038], [36.88707, -1.36795], [36.89408, -1.36634], [36.8992, -1.372], [36.89947, -1.37604], [36.90459, -1.37604], [36.90405, -1.37281], [36.8992, -1.36903], [36.89462, -1.3623], [36.89192, -1.35529], [36.89138, -1.34639], [36.87764, -1.34855], [36.87198, -1.34478], [36.85797, -1.34074], [36.84853, -1.33373], [36.84234, -1.33427]], [[36.89704, -1.34262], [36.89839, -1.34154], [36.89704, -1.34208], [36.89704, -1.34262]], [[36.92534, -1.40838], [36.92534, -1.41512], [36.93342, -1.42428], [36.93639, -1.42455], [36.94151, -1.42051], [36.94124, -1.41458], [36.93666, -1.40892], [36.93262, -1.41188], [36.92884, -1.40784], [36.92534, -1.40838]], [[36.92453, -1.42563], [36.92399, -1.42428], [36.92291, -1.42428], [36.92318, -1.42536], [36.92453, -1.42563]], [[36.92507, -1.4267], [36.92534, -1.42617], [36.92507, -1.42617], [36.92507, -1.4267]], [[36.92642, -1.43021], [36.92669, -1.42994], [36.92642, -1.42994], [36.92642, -1.43021]]], [[[36.84395, -1.3472], [36.84422, -1.34747], [36.84395, -1.34747], [36.84395, -1.3472]]], [[[36.79841, -1.30139], [36.79949, -1.30435], [36.79679, -1.30759], [36.79221, -1.30786], [36.78951, -1.3057], [36.78951, -1.30355], [36.79113, -1.30193], [36.79544, -1.30058], [36.79841, -1.30139]], [[36.79248, -1.30355], [36.79194, -1.30516], [36.79383, -1.30651], [36.79706, -1.30462], [36.79625, -1.30274], [36.79248, -1.30355]]], [[[36.80595, -1.27336], [36.81215, -1.27687], [36.81404, -1.28738], [36.80568, -1.28899], [36.80083, -1.28765], [36.79706, -1.28387], [36.79652, -1.27848], [36.7976, -1.27444], [36.8011, -1.27255], [36.80595, -1.27336]], [[36.80002, -1.27606], [36.79841, -1.27929], [36.79895, -1.28279], [36.80299, -1.28576], [36.8073, -1.28576], [36.80973, -1.28037], [36.80865, -1.27687], [36.80622, -1.27525], [36.80002, -1.27606]]], [[[36.87117, -1.26501], [36.87333, -1.26716], [36.86605, -1.27875], [36.86282, -1.28091], [36.85716, -1.2801], [36.85689, -1.27579], [36.85877, -1.27417], [36.86093, -1.27444], [36.86282, -1.27228], [36.86309, -1.26662], [36.86605, -1.26474], [36.87117, -1.26501]], [[36.86605, -1.26932], [36.86821, -1.27013], [36.86902, -1.26824], [36.86659, -1.26716], [36.86605, -1.26932]]], [[[36.8965, -1.19359], [36.89758, -1.19817], [36.8965, -1.20033], [36.88195, -1.21084], [36.87899, -1.21057], [36.87899, -1.2041], [36.87737, -1.20329], [36.87198, -1.2041], [36.86767, -1.20626], [36.86551, -1.2103], [36.86551, -1.21353], [36.86632, -1.22297], [36.86848, -1.22539], [36.86389, -1.22863], [36.86228, -1.22809], [36.86093, -1.23213], [36.85662, -1.23509], [36.85716, -1.23698], [36.86039, -1.23671], [36.86443, -1.24075], [36.86443, -1.2421], [36.86012, -1.25019], [36.85581, -1.25288], [36.84961, -1.26016], [36.84045, -1.26177], [36.83209, -1.26636], [36.82778, -1.26662], [36.8267, -1.26366], [36.82886, -1.258], [36.82482, -1.2545], [36.81646, -1.25234], [36.80326, -1.25288], [36.79059, -1.25099], [36.77981, -1.25261], [36.77442, -1.25719], [36.77496, -1.26043], [36.78089, -1.26555], [36.78089, -1.26986], [36.78466, -1.27013], [36.78574, -1.27201], [36.78412, -1.27579], [36.77927, -1.2766], [36.77631, -1.27983], [36.77523, -1.27929], [36.77523, -1.27633], [36.77739, -1.27228], [36.77631, -1.27067], [36.75637, -1.26097], [36.73023, -1.26366], [36.72834, -1.26689], [36.73346, -1.27255], [36.73292, -1.27525], [36.73076, -1.2766], [36.7119, -1.27525], [36.70247, -1.27956], [36.69573, -1.27552], [36.69546, -1.27363], [36.69654, -1.27363], [36.69816, -1.26932], [36.70408, -1.2677], [36.70759, -1.26528], [36.71001, -1.26582], [36.71702, -1.27121], [36.72052, -1.27013], [36.72484, -1.26636], [36.72322, -1.26043], [36.72484, -1.25504], [36.72645, -1.25692], [36.72699, -1.26123], [36.7375, -1.2615], [36.75259, -1.25854], [36.76014, -1.25854], [36.76526, -1.26016], [36.77334, -1.25477], [36.77631, -1.24803], [36.78143, -1.24938], [36.7976, -1.24884], [36.80595, -1.25126], [36.81673, -1.25045], [36.82185, -1.25153], [36.83048, -1.25584], [36.83129, -1.25827], [36.8294, -1.26447], [36.84692, -1.25854], [36.85419, -1.24992], [36.85931, -1.24668], [36.85958, -1.2448], [36.8585, -1.24372], [36.85338, -1.24426], [36.84719, -1.24048], [36.84557, -1.23294], [36.8515, -1.23159], [36.85231, -1.23024], [36.855, -1.23051], [36.855, -1.22377], [36.86174, -1.21704], [36.86389, -1.20949], [36.86659, -1.20491], [36.87252, -1.20195], [36.88572, -1.19817], [36.88842, -1.19871], [36.88923, -1.2006], [36.89327, -1.19979], [36.89489, -1.19871], [36.89489, -1.19709], [36.89057, -1.19413], [36.89381, -1.19467], [36.8965, -1.19359]], [[36.72645, -1.26959], [36.72241, -1.27255], [36.72322, -1.2739], [36.72969, -1.27363], [36.72915, -1.27094], [36.72645, -1.26959]]], [[[36.80757, -1.22863], [36.81566, -1.22943], [36.81646, -1.23186], [36.81566, -1.23563], [36.81296, -1.23941], [36.80703, -1.23698], [36.80461, -1.23321], [36.80568, -1.22943], [36.80757, -1.22863]], [[36.80811, -1.23213], [36.80946, -1.23375], [36.80892, -1.23186], [36.80811, -1.23213]]], [[[36.88249, -1.22], [36.89327, -1.22728], [36.89623, -1.22728], [36.90001, -1.22431], [36.91321, -1.22512], [36.91537, -1.22701], [36.91537, -1.23051], [36.91133, -1.23509], [36.90297, -1.23455], [36.89031, -1.23806], [36.88761, -1.23563], [36.88788, -1.22943], [36.88276, -1.22755], [36.87899, -1.22431], [36.87414, -1.22297], [36.87791, -1.21946], [36.88249, -1.22]], [[36.90082, -1.22809], [36.89354, -1.23078], [36.89219, -1.23455], [36.8992, -1.23402], [36.90297, -1.23213], [36.91025, -1.23321], [36.91321, -1.23024], [36.9124, -1.22809], [36.90082, -1.22809]]], [[[36.77685, -1.2262], [36.77739, -1.22647], [36.77685, -1.22647], [36.77685, -1.2262]]], [[[36.83425, -1.21865], [36.83641, -1.22162], [36.84153, -1.22324], [36.84476, -1.22647], [36.84476, -1.22863], [36.84287, -1.23051], [36.83937, -1.23159], [36.82967, -1.22512], [36.82994, -1.22324], [36.8329, -1.22054], [36.83263, -1.21892], [36.83425, -1.21865]]], [[[36.87441, -1.22377], [36.87387, -1.22351], [36.87387, -1.22297], [36.87441, -1.22377]]], [[[36.78385, -1.22431], [36.77954, -1.22647], [36.78412, -1.21812], [36.78385, -1.22431]]], [[[36.82428, -1.20976], [36.83021, -1.21246], [36.8294, -1.21353], [36.83021, -1.21704], [36.82778, -1.22189], [36.82185, -1.22108], [36.81889, -1.21758], [36.82105, -1.21138], [36.82428, -1.20976]], [[36.82374, -1.21434], [36.82374, -1.21704], [36.82563, -1.21704], [36.82536, -1.21488], [36.82374, -1.21434]]], [[[36.83209, -1.2068], [36.83452, -1.21084], [36.84045, -1.20976], [36.84611, -1.21219], [36.84611, -1.21407], [36.83668, -1.21542], [36.83425, -1.2138], [36.83209, -1.2068]]], [[[36.83182, -1.2068], [36.83209, -1.20572], [36.83209, -1.2068], [36.83182, -1.2068]]], [[[36.78763, -1.19898], [36.78978, -1.2041], [36.79463, -1.20599], [36.79383, -1.2103], [36.78871, -1.21111], [36.79059, -1.20895], [36.78817, -1.20787], [36.78547, -1.20329], [36.78763, -1.19898]]], [[[36.92103, -1.35125], [36.92076, -1.35098], [36.92103, -1.35098], [36.92103, -1.35125]]], [[[36.92103, -1.35071], [36.9213, -1.35098], [36.92103, -1.35098], [36.92103, -1.35071]]], [[[36.95094, -1.32753], [36.94447, -1.32996], [36.9442, -1.3278], [36.94474, -1.32295], [36.94636, -1.3216], [36.95067, -1.3251], [36.95094, -1.32753]], [[36.94663, -1.32861], [36.94636, -1.32834], [36.94636, -1.32861], [36.94663, -1.32861]], [[36.94609, -1.32322], [36.94555, -1.32241], [36.94582, -1.32322], [36.94609, -1.32322]]], [[[36.91483, -1.32457], [36.91375, -1.3251], [36.91402, -1.3243], [36.91483, -1.32457]]], [[[36.9531, -1.31918], [36.95256, -1.31971], [36.95256, -1.31918], [36.9531, -1.31918]]], [[[36.9372, -1.33831], [36.92318, -1.34963], [36.92291, -1.34693], [36.92049, -1.3472], [36.91968, -1.34936], [36.91213, -1.34963], [36.91429, -1.35744], [36.90971, -1.36149], [36.90863, -1.36122], [36.90971, -1.35583], [36.90782, -1.34478], [36.91375, -1.34559], [36.91914, -1.34424], [36.93423, -1.33292], [36.93073, -1.32457], [36.92696, -1.32241], [36.93073, -1.31783], [36.93046, -1.31352], [36.92426, -1.30947], [36.92211, -1.30516], [36.91429, -1.29627], [36.9151, -1.29169], [36.91941, -1.28549], [36.92184, -1.27471], [36.92696, -1.26905], [36.93073, -1.26716], [36.9345, -1.2677], [36.93585, -1.26932], [36.93612, -1.27363], [36.93935, -1.28091], [36.93962, -1.28872], [36.94286, -1.29546], [36.94932, -1.29654], [36.95364, -1.29492], [36.95822, -1.29816], [36.96253, -1.296], [36.97142, -1.29573], [36.98139, -1.30732], [36.98328, -1.31244], [36.98301, -1.31325], [36.97789, -1.30786], [36.97627, -1.30786], [36.97547, -1.31783], [36.96603, -1.31945], [36.96172, -1.31837], [36.95633, -1.31998], [36.95471, -1.3181], [36.95418, -1.31433], [36.95013, -1.31001], [36.94771, -1.31001], [36.9434, -1.31459], [36.93854, -1.3154], [36.93666, -1.32025], [36.9345, -1.32214], [36.93423, -1.32564], [36.93962, -1.33103], [36.9372, -1.33831]], [[36.93262, -1.34127], [36.93558, -1.33912], [36.93558, -1.33831], [36.931, -1.33885], [36.93046, -1.34127], [36.93262, -1.34127]], [[36.92884, -1.27013], [36.92318, -1.27579], [36.92157, -1.28953], [36.92399, -1.29223], [36.93235, -1.29007], [36.93639, -1.28414], [36.93342, -1.27067], [36.93181, -1.26932], [36.92884, -1.27013]], [[36.92453, -1.29357], [36.92426, -1.29492], [36.92642, -1.29654], [36.92696, -1.29277], [36.92453, -1.29357]], [[36.93504, -1.30166], [36.93235, -1.30301], [36.931, -1.3084], [36.93989, -1.30705], [36.9407, -1.3092], [36.94259, -1.3092], [36.94474, -1.30759], [36.94447, -1.30624], [36.94097, -1.30624], [36.94178, -1.30139], [36.93504, -1.30166]]], [[[37.07626, -1.29115], [37.07302, -1.29438], [37.07248, -1.29869], [37.07356, -1.30085], [37.0768, -1.30166], [37.07653, -1.30355], [37.05254, -1.29816], [37.05362, -1.29681], [37.05901, -1.29842], [37.06629, -1.29465], [37.07114, -1.29411], [37.0768, -1.28872], [37.07626, -1.29115]]], [[[37.08353, -1.25288], [37.0838, -1.25315], [37.08326, -1.25315], [37.08353, -1.25288]]], [[[36.9407, -1.22324], [36.94097, -1.22674], [36.9434, -1.23105], [36.94178, -1.24048], [36.94367, -1.24129], [36.95418, -1.23994], [36.96037, -1.24237], [36.969, -1.24318], [36.97223, -1.2456], [36.97196, -1.24695], [36.9628, -1.24345], [36.96199, -1.24426], [36.96334, -1.24857], [36.96496, -1.25019], [36.96981, -1.25099], [36.9752, -1.25827], [36.97978, -1.25611], [36.98382, -1.2483], [36.98382, -1.24372], [36.98032, -1.23914], [36.97951, -1.23348], [36.97762, -1.23078], [36.97331, -1.23213], [36.969, -1.23186], [36.96064, -1.23024], [36.95957, -1.22916], [36.96064, -1.22809], [36.96522, -1.22997], [36.97115, -1.22997], [36.98086, -1.22701], [36.98355, -1.22351], [36.98625, -1.22351], [36.98786, -1.22539], [36.9919, -1.22512], [36.99568, -1.23213], [36.99729, -1.23294], [36.99622, -1.23294], [36.99487, -1.23671], [36.99406, -1.24533], [36.99514, -1.24668], [36.99972, -1.24533], [37.00295, -1.24641], [37.00673, -1.25288], [37.01346, -1.25638], [37.02128, -1.25611], [37.03179, -1.25908], [37.03961, -1.25827], [37.04338, -1.25638], [37.04553, -1.25719], [37.05308, -1.24992], [37.05793, -1.25045], [37.06009, -1.24641], [37.06763, -1.24614], [37.07033, -1.2448], [37.07491, -1.23833], [37.0776, -1.23698], [37.08165, -1.23806], [37.08946, -1.23455], [37.09377, -1.2421], [37.09162, -1.24587], [37.08596, -1.24938], [37.08407, -1.25234], [37.07545, -1.25126], [37.07275, -1.25504], [37.06386, -1.25719], [37.06036, -1.25989], [37.04257, -1.2677], [37.0388, -1.26797], [37.0361, -1.26555], [37.02559, -1.2615], [37.02101, -1.26312], [37.01805, -1.26609], [37.01562, -1.26636], [37.01266, -1.26016], [37.00484, -1.25558], [37.00134, -1.25207], [36.99756, -1.25207], [36.9946, -1.25369], [36.99029, -1.25126], [36.98759, -1.25153], [36.97816, -1.26097], [36.97385, -1.26204], [36.97008, -1.25692], [36.96334, -1.25288], [36.95957, -1.24587], [36.95687, -1.24372], [36.9504, -1.24264], [36.93828, -1.24587], [36.93315, -1.2448], [36.93504, -1.24156], [36.93935, -1.23914], [36.94043, -1.23644], [36.94097, -1.23078], [36.93774, -1.22431], [36.93881, -1.2227], [36.9407, -1.22324]], [[36.98247, -1.23267], [36.98732, -1.24075], [36.9911, -1.23779], [36.98867, -1.23024], [36.98355, -1.23078], [36.98301, -1.2297], [36.98247, -1.23267]]], [[[36.91699, -1.21434], [36.91806, -1.21758], [36.91537, -1.21839], [36.91348, -1.21677], [36.91321, -1.21434], [36.91456, -1.21353], [36.91699, -1.21434]]], [[[37.0388, -1.21246], [37.04742, -1.21057], [37.04688, -1.21246], [37.04203, -1.2165], [37.03422, -1.21758], [37.0388, -1.21246]]], [[[36.91806, -1.19359], [36.91914, -1.19494], [36.91833, -1.19709], [36.91672, -1.1979], [36.91348, -1.19709], [36.91402, -1.19359], [36.91806, -1.19359]]], [[[36.93612, -1.17176], [36.94016, -1.17338], [36.9407, -1.17877], [36.93477, -1.18524], [36.93127, -1.18632], [36.92561, -1.19224], [36.92238, -1.19197], [36.91941, -1.1882], [36.91429, -1.18685], [36.91267, -1.1847], [36.91267, -1.18254], [36.91537, -1.17904], [36.92049, -1.17554], [36.92453, -1.17607], [36.931, -1.18119], [36.93369, -1.18146], [36.93666, -1.17877], [36.93504, -1.17527], [36.93531, -1.17284], [36.93612, -1.17176]], [[36.92022, -1.17904], [36.91564, -1.18227], [36.91537, -1.18416], [36.92615, -1.18928], [36.92803, -1.18739], [36.92803, -1.18389], [36.92399, -1.17877], [36.92022, -1.17904]]], [[[36.92049, -1.16368], [36.91941, -1.16664], [36.91456, -1.16799], [36.9089, -1.17203], [36.90216, -1.18066], [36.89435, -1.18254], [36.89165, -1.1785], [36.89543, -1.17931], [36.90162, -1.1785], [36.90782, -1.17095], [36.91267, -1.16691], [36.91672, -1.16556], [36.91779, -1.1626], [36.92049, -1.16368]]]]}}, {"type": "Feature", "properties": {"gridcode": 3}, "geometry": {"type": "MultiPolygon", "coordinates": [[[[36.85877, -1.36876], [36.86147, -1.37227], [36.86336, -1.37981], [36.86497, -1.38116], [36.86982, -1.3817], [36.87467, -1.38412], [36.88518, -1.38251], [36.89165, -1.38736], [36.90243, -1.38655], [36.91375, -1.39005], [36.91483, -1.40191], [36.9124, -1.40488], [36.91186, -1.40919], [36.90621, -1.41296], [36.90378, -1.41781], [36.90621, -1.42347], [36.88815, -1.41619], [36.89489, -1.40784], [36.89596, -1.39949], [36.88788, -1.39463], [36.88006, -1.39463], [36.87683, -1.39922], [36.86686, -1.3949], [36.86228, -1.39625], [36.85635, -1.39275], [36.84665, -1.39625], [36.84234, -1.38574], [36.83937, -1.3879], [36.83614, -1.38655], [36.83425, -1.39005], [36.83129, -1.38763], [36.8259, -1.38682], [36.83425, -1.38628], [36.83614, -1.38412], [36.8356, -1.38305], [36.83991, -1.38143], [36.84341, -1.37442], [36.84557, -1.37254], [36.85096, -1.37119], [36.85312, -1.36876], [36.85877, -1.36876]]], [[[36.76634, -1.38197], [36.77523, -1.38709], [36.77254, -1.38817], [36.76149, -1.38466], [36.75017, -1.3852], [36.74747, -1.38359], [36.75744, -1.38412], [36.76634, -1.38197]]], [[[36.74666, -1.38305], [36.7472, -1.38332], [36.74666, -1.38332], [36.74666, -1.38305]]], [[[36.75987, -1.36095], [36.76095, -1.36283], [36.76041, -1.36553], [36.75825, -1.36607], [36.75502, -1.36418], [36.75502, -1.36283], [36.75771, -1.36068], [36.75987, -1.36095]]], [[[36.74747, -1.34397], [36.7499, -1.3472], [36.75044, -1.35125], [36.74909, -1.35367], [36.74559, -1.35448], [36.74343, -1.35232], [36.74316, -1.34586], [36.74532, -1.34343], [36.74747, -1.34397]]], [[[36.68037, -1.33076], [36.68252, -1.33265], [36.68279, -1.33562], [36.68037, -1.33076]]], [[[36.67875, -1.32996], [36.6766, -1.3313], [36.67444, -1.32942], [36.67633, -1.32996], [36.67875, -1.32996]]], [[[36.6739, -1.32888], [36.67363, -1.32915], [36.67363, -1.32888], [36.6739, -1.32888]]], [[[36.67336, -1.32484], [36.67309, -1.32834], [36.66986, -1.32618], [36.67336, -1.32484]]], [[[36.86147, -1.32322], [36.86228, -1.32457], [36.86066, -1.32564], [36.85958, -1.32349], [36.86147, -1.32322]]], [[[36.80676, -1.31567], [36.80622, -1.31756], [36.80353, -1.31783], [36.80515, -1.31513], [36.80676, -1.31567]]], [[[36.87818, -1.29681], [36.87737, -1.29896], [36.87441, -1.30112], [36.87117, -1.30139], [36.86875, -1.29923], [36.87548, -1.29627], [36.87818, -1.29681]]], [[[36.89704, -1.19009], [36.90082, -1.19171], [36.89974, -1.19925], [36.89192, -1.20949], [36.89111, -1.2138], [36.88599, -1.21273], [36.88384, -1.21569], [36.88707, -1.21973], [36.89516, -1.22324], [36.90135, -1.22081], [36.90567, -1.22216], [36.90998, -1.22135], [36.91106, -1.21946], [36.90755, -1.20922], [36.90998, -1.20518], [36.91402, -1.20599], [36.91321, -1.20814], [36.91483, -1.21192], [36.92076, -1.21596], [36.9213, -1.21812], [36.91968, -1.22027], [36.91537, -1.22162], [36.91752, -1.2297], [36.91321, -1.23644], [36.90162, -1.23725], [36.88438, -1.24156], [36.88222, -1.24129], [36.88114, -1.2386], [36.87791, -1.24075], [36.87548, -1.24048], [36.87494, -1.23914], [36.87441, -1.24156], [36.86875, -1.24291], [36.86551, -1.2456], [36.86093, -1.25531], [36.85662, -1.25962], [36.85069, -1.26285], [36.84207, -1.26339], [36.83533, -1.2677], [36.82724, -1.26959], [36.82401, -1.26824], [36.82401, -1.2642], [36.82644, -1.25854], [36.82078, -1.25531], [36.81053, -1.25423], [36.79598, -1.25611], [36.79248, -1.25396], [36.78008, -1.25692], [36.78143, -1.26123], [36.78978, -1.26851], [36.80299, -1.27013], [36.81404, -1.27363], [36.817, -1.27767], [36.81646, -1.28279], [36.82374, -1.29654], [36.82185, -1.30085], [36.81889, -1.30166], [36.81377, -1.29304], [36.80595, -1.29277], [36.79895, -1.2898], [36.79437, -1.28468], [36.79383, -1.27471], [36.79059, -1.27417], [36.78736, -1.27983], [36.77954, -1.28172], [36.77281, -1.29007], [36.77469, -1.2898], [36.779, -1.29196], [36.779, -1.29869], [36.78008, -1.30004], [36.7879, -1.30112], [36.79517, -1.29816], [36.79868, -1.29816], [36.80461, -1.30381], [36.80649, -1.30274], [36.81027, -1.30355], [36.8108, -1.30947], [36.80784, -1.31298], [36.80353, -1.3057], [36.79652, -1.30974], [36.79248, -1.31001], [36.78682, -1.30678], [36.77927, -1.30489], [36.7755, -1.30166], [36.772, -1.30112], [36.77227, -1.30759], [36.77604, -1.31756], [36.77334, -1.32591], [36.77847, -1.33023], [36.78412, -1.33103], [36.79329, -1.32672], [36.79922, -1.32564], [36.80029, -1.32241], [36.80299, -1.32025], [36.80649, -1.32106], [36.81, -1.31998], [36.8135, -1.32187], [36.817, -1.32079], [36.81997, -1.32403], [36.82185, -1.32888], [36.82886, -1.33157], [36.83263, -1.33157], [36.84368, -1.32834], [36.84853, -1.32861], [36.86848, -1.33885], [36.87279, -1.33858], [36.87872, -1.34235], [36.88438, -1.34262], [36.89435, -1.33696], [36.89839, -1.32996], [36.90809, -1.32106], [36.9124, -1.31945], [36.92022, -1.32025], [36.92534, -1.31783], [36.92399, -1.31244], [36.91564, -1.30355], [36.91106, -1.29627], [36.91079, -1.29304], [36.91618, -1.28657], [36.91914, -1.27633], [36.92238, -1.27067], [36.92696, -1.26636], [36.93504, -1.26474], [36.93881, -1.2607], [36.94259, -1.26043], [36.94367, -1.26339], [36.93908, -1.26851], [36.93828, -1.27282], [36.94178, -1.27983], [36.94286, -1.29061], [36.94474, -1.29223], [36.94852, -1.29277], [36.96172, -1.28738], [36.96415, -1.29088], [36.97547, -1.29519], [36.98086, -1.30678], [36.97142, -1.29573], [36.96253, -1.296], [36.95822, -1.29816], [36.95364, -1.29492], [36.94932, -1.29654], [36.94286, -1.29546], [36.93962, -1.28872], [36.93935, -1.28091], [36.9345, -1.2677], [36.92965, -1.26743], [36.92345, -1.27255], [36.92103, -1.2766], [36.91941, -1.28549], [36.9151, -1.29169], [36.91429, -1.29627], [36.92211, -1.30516], [36.92426, -1.30947], [36.93046, -1.31352], [36.93073, -1.31783], [36.92696, -1.32241], [36.93073, -1.32457], [36.93423, -1.33292], [36.91914, -1.34424], [36.91375, -1.34559], [36.90782, -1.34478], [36.90971, -1.35691], [36.90863, -1.36068], [36.90944, -1.36176], [36.90728, -1.36391], [36.91402, -1.37281], [36.91564, -1.37712], [36.91213, -1.3755], [36.90594, -1.36769], [36.90055, -1.36526], [36.89596, -1.35825], [36.89435, -1.35259], [36.89462, -1.34774], [36.90755, -1.34397], [36.90755, -1.33562], [36.91186, -1.32996], [36.91321, -1.32295], [36.90998, -1.32376], [36.90082, -1.3313], [36.89947, -1.33804], [36.88518, -1.34559], [36.87737, -1.34478], [36.8736, -1.34235], [36.86821, -1.34154], [36.84746, -1.33076], [36.82886, -1.33427], [36.81943, -1.32969], [36.817, -1.32969], [36.81539, -1.33238], [36.81027, -1.33211], [36.80649, -1.33023], [36.80353, -1.33346], [36.79679, -1.33023], [36.79167, -1.32996], [36.78466, -1.33454], [36.78224, -1.33454], [36.77496, -1.33157], [36.77092, -1.32618], [36.77361, -1.31675], [36.77227, -1.31136], [36.7693, -1.30732], [36.76903, -1.30408], [36.76661, -1.30112], [36.76256, -1.30085], [36.75502, -1.3057], [36.74451, -1.30489], [36.74047, -1.30678], [36.73588, -1.30705], [36.73373, -1.30543], [36.73723, -1.2995], [36.73588, -1.29681], [36.72052, -1.29735], [36.71729, -1.2925], [36.71028, -1.28818], [36.70732, -1.28845], [36.70597, -1.29169], [36.70085, -1.296], [36.69573, -1.296], [36.69196, -1.29923], [36.68711, -1.30031], [36.67282, -1.31082], [36.67148, -1.31217], [36.67175, -1.31406], [36.67471, -1.31433], [36.67363, -1.3181], [36.67471, -1.31945], [36.67309, -1.3243], [36.66474, -1.32025], [36.67094, -1.30651], [36.67552, -1.30786], [36.67875, -1.30112], [36.68064, -1.30085], [36.68199, -1.29816], [36.68657, -1.29708], [36.69169, -1.2933], [36.69816, -1.29196], [36.7022, -1.28926], [36.70139, -1.28468], [36.69061, -1.27633], [36.6925, -1.27606], [36.69115, -1.27174], [36.69546, -1.27121], [36.69411, -1.26905], [36.69762, -1.26905], [36.69708, -1.26689], [36.69384, -1.26501], [36.696, -1.26258], [36.69465, -1.26043], [36.69977, -1.26285], [36.70894, -1.26258], [36.7181, -1.2677], [36.72133, -1.26501], [36.7216, -1.26097], [36.72349, -1.25773], [36.72484, -1.26636], [36.71864, -1.27121], [36.71648, -1.27094], [36.70867, -1.26528], [36.69762, -1.26986], [36.69654, -1.27363], [36.69546, -1.27363], [36.69573, -1.27552], [36.70247, -1.27956], [36.7119, -1.27525], [36.73076, -1.2766], [36.73292, -1.27525], [36.73346, -1.27255], [36.72834, -1.26689], [36.73023, -1.26366], [36.75637, -1.26097], [36.77631, -1.27067], [36.77739, -1.27201], [36.77523, -1.27633], [36.77523, -1.27929], [36.77631, -1.27983], [36.77927, -1.2766], [36.78412, -1.27579], [36.78574, -1.27201], [36.78466, -1.27013], [36.78089, -1.26986], [36.78089, -1.26555], [36.77496, -1.26043], [36.77442, -1.25719], [36.77981, -1.25261], [36.79059, -1.25099], [36.80326, -1.25288], [36.81646, -1.25234], [36.82347, -1.25396], [36.82751, -1.25584], [36.82886, -1.258], [36.8267, -1.26366], [36.82697, -1.26609], [36.83209, -1.26636], [36.84045, -1.26177], [36.85015, -1.25989], [36.85392, -1.25477], [36.8577, -1.25261], [36.86174, -1.24803], [36.86443, -1.24075], [36.86039, -1.23671], [36.85716, -1.23698], [36.85662, -1.23509], [36.86093, -1.23213], [36.86228, -1.22809], [36.86389, -1.22863], [36.86848, -1.22539], [36.86632, -1.22297], [36.86551, -1.21353], [36.86551, -1.2103], [36.86767, -1.20626], [36.87198, -1.2041], [36.87737, -1.20329], [36.87899, -1.2041], [36.87899, -1.21057], [36.88195, -1.21084], [36.8965, -1.20033], [36.89758, -1.19817], [36.8965, -1.19332], [36.8992, -1.19332], [36.89704, -1.19009]], [[36.86982, -1.20734], [36.86821, -1.20949], [36.86848, -1.21246], [36.87198, -1.2138], [36.87441, -1.213], [36.87494, -1.20734], [36.8736, -1.20653], [36.86982, -1.20734]], [[36.91321, -1.21434], [36.91483, -1.21812], [36.91806, -1.21758], [36.91672, -1.2138], [36.91321, -1.21434]], [[36.87548, -1.22404], [36.87899, -1.22431], [36.88276, -1.22755], [36.88788, -1.22943], [36.88761, -1.23563], [36.89031, -1.23806], [36.90297, -1.23455], [36.91133, -1.23509], [36.91564, -1.22943], [36.91483, -1.2262], [36.91186, -1.22485], [36.90001, -1.22431], [36.89623, -1.22728], [36.89327, -1.22728], [36.8806, -1.21946], [36.87548, -1.22081], [36.87414, -1.22216], [36.87548, -1.22404]], [[36.87441, -1.22324], [36.87387, -1.22351], [36.87441, -1.22377], [36.87441, -1.22324]], [[36.87198, -1.22809], [36.8674, -1.23159], [36.86713, -1.23429], [36.87279, -1.23779], [36.87548, -1.23779], [36.87845, -1.23482], [36.87791, -1.22836], [36.87602, -1.22728], [36.87198, -1.22809]], [[36.74424, -1.26393], [36.73562, -1.26689], [36.73777, -1.27444], [36.74047, -1.27606], [36.73804, -1.27983], [36.73346, -1.28064], [36.72403, -1.27848], [36.71433, -1.27794], [36.7119, -1.27983], [36.71109, -1.28306], [36.71379, -1.28657], [36.71972, -1.28926], [36.72322, -1.29465], [36.73562, -1.29384], [36.73777, -1.29492], [36.73993, -1.29735], [36.74101, -1.30355], [36.75502, -1.30301], [36.75987, -1.29789], [36.7596, -1.29627], [36.75637, -1.29438], [36.75583, -1.29196], [36.76041, -1.2863], [36.76149, -1.28037], [36.75987, -1.27417], [36.76149, -1.26797], [36.75556, -1.26339], [36.74424, -1.26393]], [[36.79868, -1.27336], [36.79706, -1.27606], [36.79652, -1.28226], [36.80002, -1.28711], [36.80568, -1.28899], [36.81404, -1.28738], [36.81242, -1.2774], [36.81053, -1.27525], [36.80488, -1.27282], [36.79868, -1.27336]], [[36.71028, -1.28037], [36.71055, -1.2801], [36.71028, -1.2801], [36.71028, -1.28037]], [[36.70274, -1.28603], [36.70328, -1.28576], [36.70274, -1.28576], [36.70274, -1.28603]], [[36.70408, -1.2863], [36.70435, -1.28603], [36.70408, -1.28603], [36.70408, -1.2863]], [[36.79248, -1.30139], [36.78951, -1.30355], [36.78951, -1.3057], [36.79113, -1.30732], [36.79517, -1.30813], [36.79868, -1.30597], [36.79895, -1.30139], [36.7976, -1.30058], [36.79248, -1.30139]], [[36.91375, -1.3251], [36.91429, -1.3243], [36.91375, -1.32457], [36.91375, -1.3251]], [[36.92022, -1.32726], [36.91321, -1.33265], [36.9116, -1.33615], [36.9124, -1.34181], [36.91833, -1.34154], [36.92992, -1.33319], [36.92992, -1.32888], [36.92857, -1.32726], [36.92426, -1.32645], [36.92022, -1.32726]], [[36.90162, -1.34909], [36.89785, -1.35178], [36.8992, -1.35691], [36.90109, -1.35933], [36.90378, -1.3596], [36.90621, -1.35664], [36.90621, -1.35125], [36.90162, -1.34909]]], [[[36.69007, -1.27579], [36.6898, -1.27606], [36.6898, -1.27579], [36.69007, -1.27579]]], [[[36.87171, -1.26285], [36.87575, -1.26474], [36.87656, -1.2677], [36.87279, -1.27174], [36.86928, -1.27956], [36.86309, -1.2836], [36.85554, -1.28252], [36.85392, -1.2801], [36.85527, -1.2704], [36.86524, -1.26285], [36.87171, -1.26285]], [[36.86551, -1.26528], [36.86255, -1.2677], [36.86228, -1.27336], [36.85689, -1.27579], [36.85716, -1.2801], [36.85985, -1.28091], [36.8647, -1.2801], [36.87333, -1.26716], [36.87306, -1.26582], [36.87036, -1.26474], [36.86551, -1.26528]]], [[[36.80946, -1.2324], [36.80946, -1.23375], [36.80865, -1.23375], [36.80811, -1.23213], [36.80946, -1.2324]]], [[[36.82536, -1.21488], [36.82563, -1.21704], [36.82374, -1.21704], [36.82347, -1.21461], [36.82536, -1.21488]]], [[[36.78817, -1.20734], [36.7879, -1.20787], [36.7879, -1.20734], [36.78817, -1.20734]]], [[[36.78763, -1.20734], [36.7879, -1.20653], [36.7879, -1.20734], [36.78763, -1.20734]]], [[[36.78493, -1.20383], [36.78628, -1.20464], [36.78763, -1.20653], [36.7852, -1.20626], [36.78493, -1.20383]]], [[[36.9531, -1.4294], [36.95337, -1.42967], [36.9531, -1.42967], [36.9531, -1.4294]]], [[[36.9469, -1.42374], [36.95202, -1.42832], [36.95283, -1.4294], [36.94879, -1.42832], [36.9469, -1.42374]]], [[[36.90647, -1.42347], [36.90621, -1.42374], [36.90621, -1.42347], [36.90647, -1.42347]]], [[[36.94259, -1.40703], [36.94232, -1.40757], [36.94232, -1.40703], [36.94259, -1.40703]]], [[[36.94205, -1.40649], [36.94232, -1.40703], [36.94205, -1.40703], [36.94205, -1.40649]]], [[[36.92884, -1.39733], [36.93477, -1.39975], [36.9372, -1.40218], [36.93127, -1.40002], [36.92884, -1.39733]]], [[[36.91699, -1.38062], [36.92103, -1.39032], [36.92049, -1.3914], [36.91591, -1.38978], [36.91699, -1.38062]]], [[[36.91591, -1.37712], [36.91564, -1.37739], [36.91564, -1.37712], [36.91591, -1.37712]]], [[[36.98112, -1.30678], [36.98086, -1.30705], [36.98086, -1.30678], [36.98112, -1.30678]]], [[[37.01481, -1.28522], [37.0264, -1.28738], [37.02829, -1.29196], [37.00242, -1.30031], [36.99864, -1.28926], [37.00834, -1.28872], [37.01481, -1.28522]]], [[[36.98139, -1.27013], [36.98193, -1.27363], [36.97816, -1.27309], [36.97843, -1.26959], [36.98139, -1.27013]]], [[[36.9593, -1.25962], [36.95822, -1.26312], [36.95552, -1.26312], [36.95633, -1.25989], [36.9593, -1.25962]]], [[[36.93585, -1.22189], [36.93881, -1.22243], [36.93774, -1.22539], [36.94097, -1.23078], [36.94097, -1.23482], [36.93935, -1.23914], [36.93504, -1.24156], [36.93315, -1.2448], [36.93828, -1.24587], [36.9504, -1.24264], [36.95687, -1.24372], [36.95957, -1.24587], [36.96334, -1.25288], [36.97008, -1.25692], [36.97385, -1.26204], [36.97816, -1.26097], [36.98759, -1.25153], [36.99029, -1.25126], [36.9946, -1.25369], [36.99756, -1.25207], [37.00134, -1.25207], [37.00484, -1.25558], [37.01266, -1.26016], [37.01562, -1.26636], [37.01805, -1.26609], [37.02101, -1.26312], [37.02559, -1.2615], [37.0361, -1.26555], [37.0388, -1.26797], [37.04257, -1.2677], [37.06036, -1.25989], [37.06386, -1.25719], [37.07275, -1.25504], [37.07545, -1.25126], [37.08407, -1.25234], [37.08596, -1.24938], [37.09162, -1.24587], [37.09404, -1.2421], [37.09674, -1.24722], [37.09027, -1.25019], [37.0997, -1.25773], [37.10078, -1.26016], [37.10294, -1.2607], [37.10213, -1.26258], [37.10482, -1.26582], [37.10321, -1.26824], [37.10186, -1.27552], [37.09836, -1.27309], [37.08731, -1.27767], [37.08488, -1.27956], [37.08353, -1.28495], [37.07868, -1.28387], [37.0768, -1.2863], [37.07653, -1.28926], [37.07168, -1.29384], [37.06629, -1.29465], [37.05901, -1.29842], [37.045, -1.29627], [37.04419, -1.29573], [37.052, -1.28953], [37.05739, -1.28899], [37.0617, -1.2863], [37.06871, -1.28684], [37.07168, -1.28468], [37.07491, -1.27902], [37.07437, -1.27309], [37.07248, -1.2677], [37.0706, -1.26582], [37.06629, -1.26501], [37.05173, -1.26797], [37.04041, -1.27094], [37.0361, -1.27471], [37.02721, -1.27282], [37.02182, -1.27713], [37.00834, -1.27174], [37.00646, -1.26959], [37.00727, -1.26636], [37.00457, -1.2607], [36.99568, -1.25908], [36.98948, -1.25611], [36.98571, -1.25773], [36.98059, -1.26555], [36.976, -1.26528], [36.97331, -1.26689], [36.96981, -1.26609], [36.96711, -1.2642], [36.96496, -1.25719], [36.96091, -1.25369], [36.95983, -1.24992], [36.95714, -1.24695], [36.94986, -1.2456], [36.93854, -1.24803], [36.93315, -1.24749], [36.93046, -1.24533], [36.92992, -1.24156], [36.93423, -1.23941], [36.93854, -1.23375], [36.93774, -1.2289], [36.93531, -1.22593], [36.93585, -1.22189]], [[37.0838, -1.25315], [37.08353, -1.25288], [37.08326, -1.25315], [37.0838, -1.25315]]], [[[36.90109, -1.24426], [36.90162, -1.24722], [36.89947, -1.25072], [36.8957, -1.2518], [36.89381, -1.25045], [36.89354, -1.24722], [36.89543, -1.2448], [36.89731, -1.24345], [36.90109, -1.24426]]], [[[36.9849, -1.23078], [36.98867, -1.23024], [36.9911, -1.2359], [36.9911, -1.23779], [36.98813, -1.24075], [36.98247, -1.23267], [36.98301, -1.2297], [36.9849, -1.23078]]], [[[36.969, -1.2297], [36.96954, -1.22997], [36.969, -1.22997], [36.969, -1.2297]]], [[[36.98247, -1.22431], [36.98032, -1.22728], [36.97008, -1.22997], [36.97816, -1.22458], [36.98247, -1.22431]]], [[[36.98625, -1.22351], [36.98921, -1.22431], [36.98975, -1.22512], [36.98786, -1.22539], [36.98625, -1.22351]]], [[[36.92076, -1.16422], [36.9248, -1.16664], [36.92157, -1.16907], [36.9213, -1.17149], [36.92669, -1.17446], [36.93073, -1.17419], [36.93369, -1.17015], [36.93639, -1.17149], [36.93504, -1.17527], [36.93666, -1.17877], [36.93235, -1.18173], [36.92291, -1.17554], [36.91968, -1.1758], [36.91672, -1.17769], [36.91267, -1.18254], [36.91267, -1.1847], [36.91429, -1.18685], [36.91941, -1.1882], [36.92291, -1.19224], [36.92723, -1.19144], [36.93127, -1.18632], [36.93369, -1.18497], [36.9345, -1.18551], [36.92076, -1.19925], [36.91375, -1.20141], [36.9116, -1.20006], [36.90863, -1.19467], [36.91052, -1.19036], [36.90998, -1.18173], [36.91779, -1.17365], [36.91806, -1.17041], [36.91025, -1.17311], [36.90459, -1.18146], [36.90135, -1.18389], [36.8957, -1.18551], [36.89462, -1.18254], [36.90216, -1.18066], [36.91025, -1.17095], [36.9151, -1.16772], [36.91941, -1.16664], [36.92076, -1.16422]], [[36.91375, -1.19386], [36.91321, -1.19656], [36.91483, -1.1979], [36.91914, -1.19629], [36.91752, -1.19332], [36.91375, -1.19386]]]]}}, {"type": "Feature", "properties": {"gridcode": 4}, "geometry": {"type": "MultiPolygon", "coordinates": [[[[36.89084, -1.41188], [36.88869, -1.41566], [36.88734, -1.41592], [36.88842, -1.41242], [36.89084, -1.41188]]], [[[36.89084, -1.41188], [36.89111, -1.41161], [36.89111, -1.41188], [36.89084, -1.41188]]], [[[36.85419, -1.39275], [36.86228, -1.39625], [36.86632, -1.3949], [36.87117, -1.39625], [36.87494, -1.39922], [36.87737, -1.39895], [36.87818, -1.39598], [36.88006, -1.39463], [36.88788, -1.39463], [36.89004, -1.39679], [36.8957, -1.39895], [36.89489, -1.40784], [36.89138, -1.41107], [36.88006, -1.40649], [36.86902, -1.4073], [36.86821, -1.40407], [36.86147, -1.40434], [36.85365, -1.39841], [36.84692, -1.39706], [36.84746, -1.39544], [36.85096, -1.39544], [36.85419, -1.39275]]], [[[36.7658, -1.38682], [36.77011, -1.38763], [36.76903, -1.38898], [36.7658, -1.38682]]], [[[36.90378, -1.34963], [36.90621, -1.35125], [36.90621, -1.35664], [36.90378, -1.3596], [36.90162, -1.3596], [36.8992, -1.35691], [36.89785, -1.35178], [36.89974, -1.34936], [36.90378, -1.34963]]], [[[36.86039, -1.29196], [36.86524, -1.29519], [36.86821, -1.29492], [36.87225, -1.29196], [36.88195, -1.29277], [36.88626, -1.29519], [36.88842, -1.30031], [36.88438, -1.30381], [36.86066, -1.30462], [36.85716, -1.30274], [36.85608, -1.29977], [36.86039, -1.29196]], [[36.8771, -1.29627], [36.86902, -1.29842], [36.86902, -1.30004], [36.87117, -1.30139], [36.87441, -1.30112], [36.87845, -1.29762], [36.8771, -1.29627]]], [[[36.86228, -1.29115], [36.86093, -1.29169], [36.86093, -1.29115], [36.86228, -1.29115]]], [[[36.87467, -1.28845], [36.8771, -1.29007], [36.8736, -1.29007], [36.87467, -1.28845]]], [[[36.68872, -1.27552], [36.70139, -1.28468], [36.70247, -1.28872], [36.69816, -1.29196], [36.69277, -1.29277], [36.68926, -1.29573], [36.68226, -1.29842], [36.68387, -1.29142], [36.68711, -1.28549], [36.68899, -1.28872], [36.69438, -1.28576], [36.69465, -1.28387], [36.69034, -1.28172], [36.69061, -1.28037], [36.68872, -1.27902], [36.68953, -1.27767], [36.68872, -1.27552]]], [[[36.75637, -1.26366], [36.76149, -1.26797], [36.75987, -1.27417], [36.76149, -1.28118], [36.7596, -1.28818], [36.75583, -1.29196], [36.75637, -1.29438], [36.75987, -1.29681], [36.7596, -1.29869], [36.75583, -1.30274], [36.74101, -1.30355], [36.73993, -1.29735], [36.73777, -1.29492], [36.73562, -1.29384], [36.72322, -1.29465], [36.71972, -1.28926], [36.71163, -1.28441], [36.7119, -1.27983], [36.71433, -1.27794], [36.73696, -1.28037], [36.74047, -1.27606], [36.73723, -1.27336], [36.73588, -1.26662], [36.74559, -1.26366], [36.75637, -1.26366]], [[36.75017, -1.26716], [36.7499, -1.26905], [36.75367, -1.27013], [36.75502, -1.26932], [36.75313, -1.26636], [36.75017, -1.26716]], [[36.75502, -1.27633], [36.74316, -1.28172], [36.74154, -1.28387], [36.74424, -1.28872], [36.74397, -1.2933], [36.74559, -1.29869], [36.74747, -1.29977], [36.75286, -1.29896], [36.74963, -1.29169], [36.75664, -1.28603], [36.75852, -1.28199], [36.75664, -1.2774], [36.75502, -1.27633]]], [[[36.88788, -1.27121], [36.88788, -1.2739], [36.88518, -1.27579], [36.88357, -1.27929], [36.88087, -1.2801], [36.88006, -1.27875], [36.88087, -1.27525], [36.88357, -1.27444], [36.88626, -1.27094], [36.88788, -1.27121]]], [[[36.70328, -1.25881], [36.71675, -1.26097], [36.72052, -1.26555], [36.71702, -1.2677], [36.70894, -1.26258], [36.70166, -1.26285], [36.70328, -1.25881]]], [[[36.69492, -1.26043], [36.70004, -1.26204], [36.70085, -1.26285], [36.69492, -1.26043]]], [[[36.88518, -1.25315], [36.88545, -1.25638], [36.88249, -1.25611], [36.88303, -1.25369], [36.88518, -1.25315]]], [[[36.87737, -1.22782], [36.87845, -1.23482], [36.87548, -1.23779], [36.87279, -1.23779], [36.8674, -1.23482], [36.8674, -1.23159], [36.86875, -1.23024], [36.87333, -1.22755], [36.87737, -1.22782]]], [[[36.87467, -1.20707], [36.87441, -1.213], [36.87198, -1.2138], [36.86848, -1.21246], [36.86821, -1.20949], [36.87009, -1.20707], [36.87467, -1.20707]]], [[[36.9186, -1.17095], [36.91779, -1.17365], [36.90998, -1.18173], [36.91052, -1.19036], [36.90863, -1.19467], [36.91052, -1.19844], [36.91375, -1.20141], [36.91779, -1.20087], [36.9213, -1.19871], [36.91483, -1.20653], [36.90998, -1.20518], [36.90809, -1.20761], [36.90755, -1.2103], [36.91106, -1.22081], [36.90647, -1.22216], [36.90135, -1.22081], [36.89516, -1.22324], [36.88707, -1.21973], [36.88411, -1.21623], [36.88411, -1.21407], [36.88599, -1.21273], [36.89111, -1.2138], [36.89192, -1.20949], [36.89974, -1.19925], [36.90082, -1.19171], [36.8965, -1.18982], [36.8957, -1.18793], [36.89758, -1.18685], [36.89596, -1.18524], [36.90351, -1.18254], [36.91025, -1.17311], [36.91564, -1.17068], [36.9186, -1.17095]], [[36.90351, -1.20033], [36.90297, -1.20302], [36.90674, -1.20195], [36.90621, -1.19979], [36.90351, -1.20033]]], [[[36.91133, -1.3693], [36.9116, -1.37038], [36.91106, -1.3693], [36.91133, -1.3693]]], [[[36.91106, -1.36876], [36.91052, -1.36903], [36.91052, -1.36849], [36.91106, -1.36876]]], [[[36.91052, -1.36849], [36.91025, -1.36795], [36.91052, -1.36795], [36.91052, -1.36849]]], [[[36.92803, -1.32699], [36.93019, -1.33023], [36.93019, -1.33265], [36.92857, -1.33481], [36.91833, -1.34154], [36.9151, -1.34235], [36.91213, -1.34154], [36.9116, -1.33615], [36.91483, -1.33076], [36.9213, -1.32645], [36.92803, -1.32699]], [[36.91968, -1.33157], [36.91779, -1.33481], [36.91429, -1.33696], [36.91456, -1.33885], [36.91806, -1.33831], [36.92372, -1.33238], [36.92264, -1.33076], [36.91968, -1.33157]]], [[[36.9787, -1.30085], [36.97897, -1.30112], [36.9787, -1.30112], [36.9787, -1.30085]]], [[[36.9213, -1.21704], [36.92588, -1.21946], [36.91995, -1.22377], [36.91941, -1.23213], [36.91725, -1.23644], [36.90513, -1.24264], [36.90459, -1.2483], [36.90513, -1.25153], [36.90647, -1.25261], [36.90621, -1.25504], [36.90324, -1.25692], [36.90243, -1.2607], [36.89596, -1.26123], [36.89516, -1.26016], [36.89596, -1.25665], [36.88869, -1.25207], [36.88734, -1.2483], [36.88384, -1.25072], [36.87791, -1.24776], [36.87629, -1.2456], [36.8709, -1.24722], [36.86363, -1.25692], [36.86336, -1.25935], [36.8771, -1.26177], [36.88033, -1.26528], [36.8798, -1.26905], [36.87441, -1.27444], [36.87252, -1.28091], [36.86928, -1.28333], [36.86794, -1.2863], [36.86147, -1.28818], [36.85904, -1.2863], [36.85473, -1.28603], [36.84692, -1.29007], [36.84503, -1.29223], [36.83883, -1.29169], [36.83614, -1.296], [36.82886, -1.29816], [36.81916, -1.30867], [36.81646, -1.30947], [36.81377, -1.31648], [36.81916, -1.31783], [36.82509, -1.32699], [36.82994, -1.32834], [36.8426, -1.32537], [36.85312, -1.32618], [36.85285, -1.31998], [36.86093, -1.31837], [36.86389, -1.32025], [36.86686, -1.3251], [36.86659, -1.32672], [36.86228, -1.32915], [36.86201, -1.33076], [36.86578, -1.33373], [36.86821, -1.334], [36.87009, -1.33184], [36.8709, -1.32591], [36.87252, -1.32484], [36.87818, -1.32484], [36.88438, -1.33157], [36.89031, -1.32618], [36.89354, -1.32753], [36.89731, -1.32672], [36.90971, -1.31648], [36.9186, -1.31513], [36.91914, -1.31298], [36.91618, -1.30759], [36.90863, -1.29789], [36.90594, -1.29816], [36.89839, -1.30516], [36.89031, -1.30705], [36.89004, -1.31244], [36.88869, -1.31379], [36.88411, -1.31352], [36.88222, -1.30947], [36.88411, -1.30543], [36.88842, -1.3057], [36.89031, -1.30462], [36.8895, -1.30247], [36.89273, -1.30031], [36.89462, -1.29654], [36.90028, -1.29088], [36.90216, -1.29034], [36.9027, -1.28738], [36.90863, -1.28549], [36.90863, -1.2836], [36.91133, -1.28495], [36.91375, -1.28414], [36.91779, -1.27201], [36.92426, -1.26447], [36.93262, -1.26204], [36.93854, -1.25746], [36.94474, -1.25692], [36.94959, -1.26016], [36.95687, -1.25369], [36.95741, -1.25153], [36.95606, -1.24911], [36.95094, -1.24857], [36.9407, -1.25126], [36.93639, -1.25099], [36.93342, -1.25396], [36.92588, -1.2448], [36.92103, -1.24372], [36.92022, -1.23914], [36.92264, -1.23509], [36.92723, -1.23429], [36.92965, -1.23698], [36.93181, -1.23698], [36.93531, -1.23375], [36.93531, -1.23105], [36.93019, -1.22162], [36.93154, -1.22297], [36.93585, -1.22189], [36.93531, -1.22593], [36.93854, -1.23186], [36.93801, -1.23536], [36.93639, -1.23725], [36.92992, -1.24156], [36.93046, -1.24533], [36.93315, -1.24749], [36.93854, -1.24803], [36.94986, -1.2456], [36.95714, -1.24695], [36.95983, -1.24992], [36.96091, -1.25369], [36.96496, -1.25719], [36.96711, -1.2642], [36.96981, -1.26609], [36.97331, -1.26689], [36.976, -1.26528], [36.98059, -1.26555], [36.98571, -1.25773], [36.98948, -1.25611], [36.99568, -1.25908], [37.00457, -1.2607], [37.00727, -1.26636], [37.00646, -1.26959], [37.00834, -1.27174], [37.02182, -1.27713], [37.02721, -1.27282], [37.0361, -1.27471], [37.04041, -1.27094], [37.06844, -1.26501], [37.07275, -1.26824], [37.07437, -1.27309], [37.07437, -1.28091], [37.06871, -1.28684], [37.0617, -1.2863], [37.05739, -1.28899], [37.05335, -1.28899], [37.04392, -1.296], [37.02856, -1.29223], [37.0264, -1.28738], [37.02047, -1.28576], [37.01481, -1.28522], [37.00834, -1.28872], [36.99864, -1.28926], [36.99703, -1.28468], [36.99972, -1.28306], [36.99783, -1.28091], [36.9822, -1.28145], [36.97816, -1.2774], [36.97277, -1.2774], [36.96927, -1.27579], [36.96469, -1.27228], [36.96226, -1.26797], [36.95256, -1.26743], [36.94852, -1.26447], [36.94582, -1.26582], [36.94124, -1.27148], [36.94555, -1.28064], [36.94582, -1.28765], [36.94932, -1.28872], [36.95175, -1.28576], [36.96361, -1.2836], [36.96792, -1.28953], [36.97547, -1.29142], [36.9787, -1.30004], [36.97843, -1.30085], [36.97466, -1.29438], [36.96415, -1.29088], [36.96172, -1.28738], [36.94852, -1.29277], [36.94474, -1.29223], [36.94286, -1.29061], [36.94205, -1.28091], [36.93908, -1.27525], [36.93828, -1.27067], [36.94393, -1.26204], [36.94313, -1.2607], [36.94016, -1.26016], [36.93504, -1.26474], [36.92696, -1.26636], [36.92238, -1.27067], [36.91914, -1.27633], [36.91618, -1.28657], [36.91079, -1.29304], [36.91106, -1.29627], [36.91564, -1.30355], [36.92399, -1.31244], [36.92534, -1.31783], [36.92022, -1.32025], [36.9124, -1.31945], [36.90809, -1.32106], [36.89839, -1.32996], [36.89435, -1.33696], [36.88438, -1.34262], [36.87872, -1.34235], [36.87279, -1.33858], [36.86848, -1.33885], [36.84853, -1.32861], [36.84368, -1.32834], [36.83263, -1.33157], [36.82886, -1.33157], [36.82185, -1.32888], [36.81997, -1.32403], [36.817, -1.32079], [36.8135, -1.32187], [36.81, -1.31998], [36.80649, -1.32106], [36.80299, -1.32025], [36.80029, -1.32241], [36.79922, -1.32564], [36.79329, -1.32672], [36.78412, -1.33103], [36.77847, -1.33023], [36.77361, -1.32645], [36.77334, -1.3243], [36.77577, -1.32052], [36.77604, -1.31756], [36.77227, -1.30759], [36.772, -1.30112], [36.7755, -1.30166], [36.77927, -1.30489], [36.78682, -1.30678], [36.79248, -1.31001], [36.79652, -1.30974], [36.80353, -1.3057], [36.80784, -1.31298], [36.8108, -1.30947], [36.81027, -1.30355], [36.80649, -1.30274], [36.80461, -1.30381], [36.79868, -1.29816], [36.79517, -1.29816], [36.7879, -1.30112], [36.78008, -1.30004], [36.779, -1.29869], [36.779, -1.29196], [36.77469, -1.2898], [36.77281, -1.29007], [36.77954, -1.28172], [36.78736, -1.27983], [36.79059, -1.27417], [36.79383, -1.27471], [36.79437, -1.28468], [36.79895, -1.2898], [36.80595, -1.29277], [36.81377, -1.29304], [36.81889, -1.30166], [36.82185, -1.30085], [36.82374, -1.29654], [36.81646, -1.28279], [36.817, -1.27767], [36.81404, -1.27363], [36.80299, -1.27013], [36.78978, -1.26851], [36.78143, -1.26123], [36.78008, -1.25692], [36.79248, -1.25396], [36.79598, -1.25611], [36.81053, -1.25423], [36.81862, -1.25477], [36.82401, -1.25638], [36.82644, -1.25854], [36.82401, -1.2642], [36.82455, -1.26905], [36.82724, -1.26959], [36.83452, -1.26797], [36.84045, -1.26393], [36.85069, -1.26285], [36.85662, -1.25962], [36.86093, -1.25531], [36.86551, -1.2456], [36.86875, -1.24291], [36.87441, -1.24156], [36.87494, -1.23914], [36.87548, -1.24048], [36.87791, -1.24075], [36.88114, -1.2386], [36.88222, -1.24129], [36.88438, -1.24156], [36.90162, -1.23725], [36.91321, -1.23644], [36.91752, -1.2297], [36.91537, -1.22162], [36.91968, -1.22027], [36.9213, -1.21704]], [[36.90001, -1.24345], [36.89435, -1.24587], [36.89327, -1.24884], [36.89435, -1.25099], [36.89758, -1.2518], [36.90082, -1.24911], [36.90162, -1.2448], [36.90001, -1.24345]], [[36.90351, -1.25315], [36.90082, -1.2545], [36.90135, -1.25584], [36.90351, -1.25315]], [[36.81539, -1.25665], [36.80299, -1.25827], [36.79706, -1.26177], [36.79625, -1.26501], [36.81161, -1.26932], [36.8197, -1.2677], [36.82185, -1.26123], [36.82131, -1.25908], [36.81539, -1.25665]], [[36.95876, -1.25908], [36.95525, -1.26123], [36.95579, -1.26339], [36.95822, -1.26312], [36.95957, -1.26123], [36.95876, -1.25908]], [[36.86848, -1.26231], [36.86147, -1.26474], [36.85473, -1.27121], [36.85392, -1.2801], [36.85608, -1.28279], [36.86309, -1.2836], [36.86632, -1.28226], [36.87009, -1.27848], [36.87279, -1.27174], [36.87656, -1.2677], [36.87441, -1.26366], [36.86848, -1.26231]], [[36.84207, -1.2677], [36.84099, -1.26905], [36.84153, -1.27067], [36.8453, -1.27444], [36.84665, -1.27983], [36.8488, -1.28037], [36.85069, -1.27633], [36.85123, -1.26743], [36.84207, -1.2677]], [[36.9946, -1.26797], [36.98867, -1.26959], [36.99217, -1.27606], [36.99676, -1.27848], [36.99972, -1.27713], [36.99999, -1.27255], [36.9946, -1.26797]], [[36.97816, -1.27013], [36.97816, -1.27309], [36.9822, -1.27336], [36.98086, -1.26932], [36.97816, -1.27013]], [[36.82832, -1.27255], [36.82428, -1.27929], [36.82509, -1.28145], [36.82374, -1.28468], [36.82617, -1.28711], [36.83317, -1.28576], [36.8356, -1.27875], [36.83506, -1.27579], [36.83156, -1.27201], [36.82832, -1.27255]], [[37.04526, -1.27498], [37.03179, -1.28145], [37.03395, -1.29169], [37.03556, -1.29304], [37.04149, -1.29169], [37.04769, -1.28549], [37.04796, -1.28306], [37.045, -1.28118], [37.04526, -1.27498]], [[37.05928, -1.27633], [37.0582, -1.28064], [37.05955, -1.28172], [37.06682, -1.28118], [37.0679, -1.2801], [37.06602, -1.27687], [37.06116, -1.27552], [37.05928, -1.27633]], [[36.78736, -1.2898], [36.7852, -1.29196], [36.78493, -1.29546], [36.78871, -1.29762], [36.79059, -1.29627], [36.79167, -1.29142], [36.79086, -1.28926], [36.78736, -1.2898]], [[36.7852, -1.31217], [36.79356, -1.31567], [36.79868, -1.31379], [36.79814, -1.31271], [36.7914, -1.31352], [36.78763, -1.31082], [36.78547, -1.31109], [36.7852, -1.31217]], [[36.779, -1.31217], [36.77954, -1.31486], [36.78116, -1.31513], [36.78493, -1.31163], [36.779, -1.31217]], [[36.80622, -1.31513], [36.80353, -1.31783], [36.80676, -1.31702], [36.80622, -1.31513]], [[36.85958, -1.32457], [36.86147, -1.32564], [36.86228, -1.3243], [36.86012, -1.32268], [36.85958, -1.32457]], [[36.78682, -1.32295], [36.78278, -1.3251], [36.78412, -1.32699], [36.78709, -1.32645], [36.78844, -1.32457], [36.78682, -1.32295]], [[36.88249, -1.33481], [36.88276, -1.33508], [36.88276, -1.33481], [36.88249, -1.33481]]], [[[37.10024, -1.25854], [37.10321, -1.26016], [37.10321, -1.2607], [37.10078, -1.26016], [37.10024, -1.25854]]], [[[36.97412, -1.22728], [36.97385, -1.22755], [36.97385, -1.22728], [36.97412, -1.22728]]], [[[36.97412, -1.22728], [36.97574, -1.22593], [36.97654, -1.22593], [36.9752, -1.22701], [36.97466, -1.22701], [36.97466, -1.22728], [36.97412, -1.22728]]], [[[36.92157, -1.19844], [36.9213, -1.19871], [36.9213, -1.19844], [36.92157, -1.19844]]], [[[36.92157, -1.19844], [36.92184, -1.19817], [36.92184, -1.19844], [36.92157, -1.19844]]], [[[36.92211, -1.1979], [36.92184, -1.19817], [36.92184, -1.1979], [36.92211, -1.1979]]], [[[36.92211, -1.1979], [36.92238, -1.19763], [36.92238, -1.1979], [36.92211, -1.1979]]], [[[36.92264, -1.19736], [36.92238, -1.19763], [36.92238, -1.19736], [36.92264, -1.19736]]], [[[36.92291, -1.19736], [36.92264, -1.19736], [36.92264, -1.19709], [36.92291, -1.19709], [36.92291, -1.19736]]], [[[36.92561, -1.16664], [36.92777, -1.16961], [36.931, -1.16907], [36.93369, -1.17068], [36.93073, -1.17419], [36.92669, -1.17446], [36.9213, -1.17149], [36.92157, -1.16907], [36.92399, -1.16691], [36.92561, -1.16664]]]]}}, {"type": "Feature", "properties": {"gridcode": 5}, "geometry": {"type": "MultiPolygon", "coordinates": [[[[36.78817, -1.32349], [36.78817, -1.32537], [36.78601, -1.32699], [36.78278, -1.32564], [36.78412, -1.32349], [36.78817, -1.32349]]], [[[36.78601, -1.31082], [36.7914, -1.31352], [36.79814, -1.31271], [36.79868, -1.31379], [36.79356, -1.31567], [36.7852, -1.31217], [36.78601, -1.31082]]], [[[36.78278, -1.31136], [36.78493, -1.31217], [36.77981, -1.31513], [36.77873, -1.31217], [36.78278, -1.31136]]], [[[36.79086, -1.28953], [36.79167, -1.29169], [36.79059, -1.29627], [36.78871, -1.29762], [36.78547, -1.29654], [36.78493, -1.29357], [36.78628, -1.29007], [36.79086, -1.28953]]], [[[36.75556, -1.27687], [36.75825, -1.28037], [36.75798, -1.28387], [36.74963, -1.29169], [36.75286, -1.29896], [36.74747, -1.29977], [36.74559, -1.29869], [36.74397, -1.2933], [36.74424, -1.28872], [36.74154, -1.28387], [36.74316, -1.28172], [36.74882, -1.27983], [36.75286, -1.2766], [36.75556, -1.27687]]], [[[36.69034, -1.28172], [36.69465, -1.28387], [36.69438, -1.28576], [36.68899, -1.28872], [36.68765, -1.28765], [36.68738, -1.28495], [36.69034, -1.28172]]], [[[36.83156, -1.27228], [36.83533, -1.27633], [36.83452, -1.28387], [36.83102, -1.28657], [36.82536, -1.28684], [36.82374, -1.28468], [36.82509, -1.28145], [36.82482, -1.27713], [36.82697, -1.27579], [36.82832, -1.27228], [36.83156, -1.27228]]], [[[36.85123, -1.26743], [36.85042, -1.27767], [36.8488, -1.28037], [36.84719, -1.28037], [36.8453, -1.27444], [36.84099, -1.26905], [36.8426, -1.26716], [36.85123, -1.26743]]], [[[36.75394, -1.26689], [36.75502, -1.26851], [36.75394, -1.27013], [36.74936, -1.26851], [36.75044, -1.26662], [36.75394, -1.26689]]], [[[36.81188, -1.25665], [36.82185, -1.25962], [36.82024, -1.26662], [36.81862, -1.26851], [36.81161, -1.26932], [36.79598, -1.26447], [36.79706, -1.26177], [36.80299, -1.25827], [36.81188, -1.25665]]], [[[36.88249, -1.33508], [36.88276, -1.33481], [36.88276, -1.33508], [36.88249, -1.33508]]], [[[36.92291, -1.3313], [36.92372, -1.33238], [36.92264, -1.334], [36.91806, -1.33831], [36.91429, -1.33858], [36.91429, -1.33696], [36.91779, -1.33481], [36.91968, -1.3313], [36.92291, -1.3313]]], [[[37.04526, -1.27498], [37.045, -1.28118], [37.04796, -1.28306], [37.04769, -1.28549], [37.04149, -1.29169], [37.03556, -1.29304], [37.03395, -1.29169], [37.03179, -1.28145], [37.03853, -1.27875], [37.04392, -1.27471], [37.04526, -1.27498]]], [[[37.06009, -1.27552], [37.06655, -1.27713], [37.0679, -1.27875], [37.06763, -1.28064], [37.05901, -1.28145], [37.05874, -1.2766], [37.06009, -1.27552]]], [[[36.94717, -1.26474], [36.95471, -1.26797], [36.96226, -1.26797], [36.96469, -1.27228], [36.96927, -1.27579], [36.97277, -1.2774], [36.97816, -1.2774], [36.9822, -1.28145], [36.99783, -1.28091], [36.99972, -1.28333], [36.99676, -1.28495], [36.99514, -1.28145], [36.97466, -1.28953], [36.9752, -1.29142], [36.96792, -1.28953], [36.9628, -1.28333], [36.95175, -1.28576], [36.94986, -1.28845], [36.9469, -1.28872], [36.94528, -1.28522], [36.94555, -1.28064], [36.94124, -1.27148], [36.94717, -1.26474]]], [[[36.92534, -1.21946], [36.93019, -1.22162], [36.93558, -1.23294], [36.93181, -1.23698], [36.92965, -1.23698], [36.92723, -1.23429], [36.92264, -1.23509], [36.92022, -1.23914], [36.92103, -1.24372], [36.92588, -1.2448], [36.93342, -1.25396], [36.93639, -1.25099], [36.9407, -1.25126], [36.95094, -1.24857], [36.95606, -1.24911], [36.95741, -1.25261], [36.9504, -1.25989], [36.94852, -1.26016], [36.94474, -1.25692], [36.93854, -1.25746], [36.93262, -1.26204], [36.92426, -1.26447], [36.91779, -1.27201], [36.91375, -1.28414], [36.91133, -1.28495], [36.90863, -1.2836], [36.90863, -1.28549], [36.9027, -1.28738], [36.90216, -1.29034], [36.90028, -1.29088], [36.89462, -1.29654], [36.89273, -1.30031], [36.8895, -1.30247], [36.89031, -1.30462], [36.88842, -1.3057], [36.88411, -1.30543], [36.88222, -1.30947], [36.88411, -1.31352], [36.88869, -1.31379], [36.89004, -1.31244], [36.89031, -1.30705], [36.89839, -1.30516], [36.90594, -1.29816], [36.90863, -1.29789], [36.91618, -1.30759], [36.91914, -1.31298], [36.9186, -1.31513], [36.90971, -1.31648], [36.89731, -1.32672], [36.89354, -1.32753], [36.89031, -1.32618], [36.88438, -1.33157], [36.87818, -1.32484], [36.87252, -1.32484], [36.8709, -1.32591], [36.87009, -1.33184], [36.86821, -1.334], [36.86578, -1.33373], [36.86201, -1.33076], [36.86228, -1.32915], [36.86659, -1.32672], [36.86686, -1.3251], [36.86389, -1.32025], [36.86093, -1.31837], [36.85285, -1.31998], [36.85312, -1.32618], [36.8426, -1.32537], [36.82994, -1.32834], [36.82509, -1.32699], [36.81916, -1.31783], [36.81377, -1.31648], [36.81646, -1.30947], [36.81916, -1.30867], [36.82886, -1.29816], [36.83614, -1.296], [36.83883, -1.29169], [36.84503, -1.29223], [36.84692, -1.29007], [36.85473, -1.28603], [36.85904, -1.2863], [36.86147, -1.28818], [36.86794, -1.2863], [36.86928, -1.28333], [36.87252, -1.28091], [36.87441, -1.27444], [36.8798, -1.26905], [36.88033, -1.26528], [36.8771, -1.26177], [36.86336, -1.25935], [36.86363, -1.25692], [36.8709, -1.24722], [36.87629, -1.2456], [36.87791, -1.24776], [36.88384, -1.25072], [36.88734, -1.2483], [36.88869, -1.25207], [36.89596, -1.25665], [36.89516, -1.25881], [36.89596, -1.26123], [36.90189, -1.26097], [36.90324, -1.25989], [36.90324, -1.25692], [36.90621, -1.25504], [36.90647, -1.25261], [36.90513, -1.25153], [36.90459, -1.2483], [36.9054, -1.2421], [36.91725, -1.23644], [36.91941, -1.23213], [36.91995, -1.22377], [36.92534, -1.21946]], [[36.88303, -1.25369], [36.88249, -1.25611], [36.88545, -1.25638], [36.88572, -1.25342], [36.88303, -1.25369]], [[36.88599, -1.27121], [36.88357, -1.27444], [36.88168, -1.27444], [36.88033, -1.27606], [36.88087, -1.2801], [36.88357, -1.27929], [36.88518, -1.27579], [36.88788, -1.2739], [36.88788, -1.27121], [36.88599, -1.27121]], [[36.8736, -1.28899], [36.8736, -1.29007], [36.87764, -1.2898], [36.87629, -1.28845], [36.8736, -1.28899]], [[36.86093, -1.29169], [36.86228, -1.29115], [36.86093, -1.29115], [36.86093, -1.29169]], [[36.8612, -1.29196], [36.85608, -1.30112], [36.86066, -1.30462], [36.88438, -1.30381], [36.88842, -1.30031], [36.88626, -1.29519], [36.88195, -1.29277], [36.87225, -1.29196], [36.86686, -1.29519], [36.86416, -1.29492], [36.8612, -1.29196]]], [[[36.9946, -1.26824], [36.99999, -1.27255], [36.99972, -1.27713], [36.99783, -1.27848], [36.99217, -1.27606], [36.98867, -1.26959], [36.9919, -1.2677], [36.9946, -1.26824]]], [[[36.90324, -1.25342], [36.90189, -1.25584], [36.90082, -1.25558], [36.90216, -1.25315], [36.90324, -1.25342]]], [[[36.90647, -1.20033], [36.90647, -1.20222], [36.90297, -1.20302], [36.90378, -1.19979], [36.90647, -1.20033]]]]}}]}